{
  "norad_id": 60309,
  "name": "STARLINK-11213 [DTC]",
  "history": [
    {
      "epoch": "2026-03-28T21:28:01.185888Z",
      "apogee_km": 360.75813638151067,
      "perigee_km": 358.6749268266094,
      "latitude_deg": -2.8708461109565848e-05,
      "longitude_deg": -97.00281671303385,
      "height_km": 360.72176567891626,
      "semi_major_axis_km": 6737.85353160406,
      "eccentricity": 0.00015459,
      "inclination_deg": 53.1604,
      "raan_deg": 51.3105,
      "arg_perigee_deg": 95.0746,
      "mean_anomaly_deg": 265.0448,
      "mean_motion_rev_day": 15.69713571
    },
    {
      "epoch": "2026-03-29T03:34:45.614784Z",
      "apogee_km": 360.50480929719106,
      "perigee_km": 358.96857409548556,
      "latitude_deg": 1.6088788013833042e-05,
      "longitude_deg": 169.80287135469788,
      "height_km": 360.80675332833715,
      "semi_major_axis_km": 6737.873691696338,
      "eccentricity": 0.000114,
      "inclination_deg": 53.1595,
      "raan_deg": 50.0523,
      "arg_perigee_deg": 101.755,
      "mean_anomaly_deg": 258.3596,
      "mean_motion_rev_day": 15.69706526
    },
    {
      "epoch": "2026-03-30T04:01:43.408128Z",
      "apogee_km": 360.82486027797586,
      "perigee_km": 358.73341110945603,
      "latitude_deg": 5.8448615673500896e-05,
      "longitude_deg": 157.041397290525,
      "height_km": 361.2329470497097,
      "semi_major_axis_km": 6737.916135693716,
      "eccentricity": 0.0001552,
      "inclination_deg": 53.1606,
      "raan_deg": 45.0357,
      "arg_perigee_deg": 121.1175,
      "mean_anomaly_deg": 238.9996,
      "mean_motion_rev_day": 15.69691694
    },
    {
      "epoch": "2026-03-30T20:50:14.324640Z",
      "apogee_km": 360.3862047132179,
      "perigee_km": 359.13160849540964,
      "latitude_deg": 1.9738175403337223e-05,
      "longitude_deg": -99.23495371392482,
      "height_km": 360.7877107765346,
      "semi_major_axis_km": 6737.8959066043135,
      "eccentricity": 9.31e-05,
      "inclination_deg": 53.1587,
      "raan_deg": 41.5785,
      "arg_perigee_deg": 100.5683,
      "mean_anomaly_deg": 259.544,
      "mean_motion_rev_day": 15.69698763
    },
    {
      "epoch": "2026-03-31T19:45:29.944800Z",
      "apogee_km": 360.4910889492103,
      "perigee_km": 359.049176822773,
      "latitude_deg": 1.7534630382339687e-05,
      "longitude_deg": -88.69677029895247,
      "height_km": 360.83493332282103,
      "semi_major_axis_km": 6737.907132885991,
      "eccentricity": 0.000107,
      "inclination_deg": 53.1592,
      "raan_deg": 36.8731,
      "arg_perigee_deg": 102.1035,
      "mean_anomaly_deg": 258.0103,
      "mean_motion_rev_day": 15.6969484
    },
    {
      "epoch": "2026-04-01T03:23:55.029696Z",
      "apogee_km": 360.4821914164795,
      "perigee_km": 359.04620991259344,
      "latitude_deg": 4.433143530867656e-05,
      "longitude_deg": 154.81735366024665,
      "height_km": 360.79161827441493,
      "semi_major_axis_km": 6737.901200664536,
      "eccentricity": 0.00010656,
      "inclination_deg": 53.1591,
      "raan_deg": 35.3055,
      "arg_perigee_deg": 99.1203,
      "mean_anomaly_deg": 260.9936,
      "mean_motion_rev_day": 15.69696913
    },
    {
      "epoch": "2026-04-02T19:07:40.392192Z",
      "apogee_km": 360.0718549629237,
      "perigee_km": 359.39402524694924,
      "latitude_deg": -1.8555285447473585e-05,
      "longitude_deg": -90.91762500853264,
      "height_km": 360.952314907462,
      "semi_major_axis_km": 6737.869940104936,
      "eccentricity": 5.03e-05,
      "inclination_deg": 53.1601,
      "raan_deg": 27.1412,
      "arg_perigee_deg": 153.9863,
      "mean_anomaly_deg": 206.118,
      "mean_motion_rev_day": 15.69707837
    },
    {
      "epoch": "2026-04-02T19:07:40.393056Z",
      "apogee_km": 360.071518069426,
      "perigee_km": 359.394362140446,
      "latitude_deg": 6.400783911970708e-05,
      "longitude_deg": -90.91756711072556,
      "height_km": 360.9520017043644,
      "semi_major_axis_km": 6737.869940104936,
      "eccentricity": 5.025e-05,
      "inclination_deg": 53.1601,
      "raan_deg": 27.1412,
      "arg_perigee_deg": 153.9864,
      "mean_anomaly_deg": 206.118,
      "mean_motion_rev_day": 15.69707837
    },
    {
      "epoch": "2026-04-03T19:34:37.944480Z",
      "apogee_km": 360.6544000424328,
      "perigee_km": 358.8715517088167,
      "latitude_deg": -4.7514041661475396e-05,
      "longitude_deg": -103.68134560012096,
      "height_km": 360.5826058705728,
      "semi_major_axis_km": 6737.8999758756245,
      "eccentricity": 0.0001323,
      "inclination_deg": 53.1587,
      "raan_deg": 22.1214,
      "arg_perigee_deg": 83.973,
      "mean_anomaly_deg": 276.1438,
      "mean_motion_rev_day": 15.69697341
    },
    {
      "epoch": "2026-04-04T12:23:08.667456Z",
      "apogee_km": 360.56062553047104,
      "perigee_km": 358.87400583816816,
      "latitude_deg": 6.833075848224087e-05,
      "longitude_deg": 0.048225830843451195,
      "height_km": 360.52598866086305,
      "semi_major_axis_km": 6737.854315684319,
      "eccentricity": 0.00012516,
      "inclination_deg": 53.1596,
      "raan_deg": 18.6692,
      "arg_perigee_deg": 82.8652,
      "mean_anomaly_deg": 277.2509,
      "mean_motion_rev_day": 15.69713297
    },
    {
      "epoch": "2026-04-05T03:39:59.561280Z",
      "apogee_km": 360.0680484747245,
      "perigee_km": 359.43455221672593,
      "latitude_deg": 7.138416883320559e-06,
      "longitude_deg": 127.06996159533023,
      "height_km": 360.4925601291563,
      "semi_major_axis_km": 6737.888300345725,
      "eccentricity": 4.701e-05,
      "inclination_deg": 53.1589,
      "raan_deg": 15.5306,
      "arg_perigee_deg": 56.8531,
      "mean_anomaly_deg": 303.2532,
      "mean_motion_rev_day": 15.69701421
    },
    {
      "epoch": "2026-04-06T01:03:34.785504Z",
      "apogee_km": 360.52522978280194,
      "perigee_km": 359.059460633046,
      "latitude_deg": 4.306342866472995e-05,
      "longitude_deg": 160.8995350017745,
      "height_km": 360.4644811594291,
      "semi_major_axis_km": 6737.929345207924,
      "eccentricity": 0.00010877,
      "inclination_deg": 53.1593,
      "raan_deg": 11.1355,
      "arg_perigee_deg": 70.7576,
      "mean_anomaly_deg": 289.356,
      "mean_motion_rev_day": 15.69687078
    },
    {
      "epoch": "2026-04-07T10:40:37.050528Z",
      "apogee_km": 360.15745175655684,
      "perigee_km": 359.3572594228872,
      "latitude_deg": 2.690136949289454e-05,
      "longitude_deg": 8.35366840162756,
      "height_km": 360.57020570374783,
      "semi_major_axis_km": 6737.894355589722,
      "eccentricity": 5.938e-05,
      "inclination_deg": 53.1608,
      "raan_deg": 4.2297,
      "arg_perigee_deg": 75.2925,
      "mean_anomaly_deg": 284.8159,
      "mean_motion_rev_day": 15.69699305
    },
    {
      "epoch": "2026-04-08T00:25:46.306848Z",
      "apogee_km": 360.3540827924144,
      "perigee_km": 359.15527710471815,
      "latitude_deg": 1.665068016522259e-05,
      "longitude_deg": 158.675993052549,
      "height_km": 360.6815382821641,
      "semi_major_axis_km": 6737.891679948566,
      "eccentricity": 8.896e-05,
      "inclination_deg": 53.1604,
      "raan_deg": 1.4054,
      "arg_perigee_deg": 91.2315,
      "mean_anomaly_deg": 268.8805,
      "mean_motion_rev_day": 15.6970024
    },
    {
      "epoch": "2026-04-09T10:02:49.444512Z",
      "apogee_km": 360.2944378568127,
      "perigee_km": 359.22755908773524,
      "latitude_deg": 7.405628630436284e-05,
      "longitude_deg": 6.127934732196052,
      "height_km": 360.82260357687306,
      "semi_major_axis_km": 6737.897998472274,
      "eccentricity": 7.917e-05,
      "inclination_deg": 53.1595,
      "raan_deg": 354.501,
      "arg_perigee_deg": 106.0598,
      "mean_anomaly_deg": 254.0508,
      "mean_motion_rev_day": 15.69698032
    },
    {
      "epoch": "2026-04-10T02:51:19.439136Z",
      "apogee_km": 360.33074209402275,
      "perigee_km": 359.06295127743124,
      "latitude_deg": -4.3985656902217016e-05,
      "longitude_deg": 109.85887355727097,
      "height_km": 360.80508498280244,
      "semi_major_axis_km": 6737.833846685727,
      "eccentricity": 9.408e-05,
      "inclination_deg": 53.16,
      "raan_deg": 351.0473,
      "arg_perigee_deg": 107.8496,
      "mean_anomaly_deg": 252.2624,
      "mean_motion_rev_day": 15.6972045
    },
    {
      "epoch": "2026-04-11T15:31:45.740352Z",
      "apogee_km": 359.9920159783751,
      "perigee_km": 359.57291738754884,
      "latitude_deg": 4.456841852996749e-05,
      "longitude_deg": -89.28899851472269,
      "height_km": 360.8545367148631,
      "semi_major_axis_km": 6737.919466682962,
      "eccentricity": 3.11e-05,
      "inclination_deg": 53.1598,
      "raan_deg": 343.5151,
      "arg_perigee_deg": 138.6478,
      "mean_anomaly_deg": 221.4564,
      "mean_motion_rev_day": 15.6969053
    },
    {
      "epoch": "2026-04-12T15:58:40.915776Z",
      "apogee_km": 360.63722579653677,
      "perigee_km": 359.271279937755,
      "latitude_deg": 1.4498038171391218e-05,
      "longitude_deg": -102.04499018668574,
      "height_km": 360.6032480677812,
      "semi_major_axis_km": 6738.091252867146,
      "eccentricity": 0.00010136,
      "inclination_deg": 53.1587,
      "raan_deg": 338.4931,
      "arg_perigee_deg": 67.1953,
      "mean_anomaly_deg": 292.9172,
      "mean_motion_rev_day": 15.69630502
    },
    {
      "epoch": "2026-04-14T21:27:37.384416Z",
      "apogee_km": 360.428049897434,
      "perigee_km": 359.041395896862,
      "latitude_deg": 2.240086793492658e-05,
      "longitude_deg": 162.53688930368705,
      "height_km": 360.63363339298894,
      "semi_major_axis_km": 6737.871722897148,
      "eccentricity": 0.0001029,
      "inclination_deg": 53.1575,
      "raan_deg": 327.5067,
      "arg_perigee_deg": 88.7962,
      "mean_anomaly_deg": 271.3174,
      "mean_motion_rev_day": 15.69707214
    }
  ]
}